[{"OBJECT_NAME":"GAOFEN-9 05","OBJECT_ID":"2020-058A","EPOCH":"2026-03-10T00:01:50.876256","MEAN_MOTION":15.30293976,"ECCENTRICITY":0.0010522,"INCLINATION":97.2228,"RA_OF_ASC_NODE":111.963,"ARG_OF_PERICENTER":91.0204,"MEAN_ANOMALY":269.2242,"EPHEMERIS_TYPE":0,"CLASSIFICATION_TYPE":"U","NORAD_CAT_ID":46232,"ELEMENT_SET_NO":999,"REV_AT_EPOCH":30843,"BSTAR":0.00025120304,"MEAN_MOTION_DOT":7.299e-5,"MEAN_MOTION_DDOT":0},{"OBJECT_NAME":"STARLINK-32702","OBJECT_ID":"2024-251A","EPOCH":"2026-03-09T23:35:51.139392","MEAN_MOTION":15.3022321,"ECCENTRICITY":0.00013632,"INCLINATION":53.1627,"RA_OF_ASC_NODE":331.0824,"ARG_OF_PERICENTER":65.2599,"MEAN_ANOMALY":294.8544,"EPHEMERIS_TYPE":0,"CLASSIFICATION_TYPE":"U","NORAD_CAT_ID":62432,"ELEMENT_SET_NO":999,"REV_AT_EPOCH":6803,"BSTAR":0.0011431202,"MEAN_MOTION_DOT":0.00033675,"MEAN_MOTION_DDOT":0}]
